{
  "type": "Feature",
  "metadata": {
    "generator": {
      "name": "Peta Nusa",
      "url": "https://petanusa.web.id",
      "version": "1.0"
    },
    "query": {
      "region": "Buahdua",
      "region_code": "32.11.10",
      "level": "district",
      "boundary_level": "self"
    },
    "result": {
      "total_features": 1,
      "generated_at": "2026-02-13T09:54:11.340Z"
    },
    "source": {
      "name": "Laravel Nusa",
      "url": "https://nusa.creasi.dev",
      "github": "https://github.com/creasico/laravel-nusa",
      "data_reference": "Kepmendagri No 300.2.2-2138 Tahun 2025"
    },
    "copyright": {
      "text": "© Creasi.co - Laravel Nusa",
      "license": "MIT",
      "license_url": "https://github.com/creasico/laravel-nusa/blob/main/LICENSE"
    }
  },
  "properties": {
    "code": "32.11.10",
    "name": "Buahdua",
    "level": "district",
    "latitude": -6.6865988030197,
    "longitude": 107.94457527321,
    "parent_code": "32.11"
  },
  "geometry": {
    "type": "Polygon",
    "coordinates": [
      [
        [
          107.9132910808188,
          -6.601225486566932
        ],
        [
          107.93947355436109,
          -6.625350079242708
        ],
        [
          107.99568744242157,
          -6.655345852728885
        ],
        [
          107.97153224941383,
          -6.657990447700968
        ],
        [
          107.97925031035362,
          -6.673502359945928
        ],
        [
          107.97439376176277,
          -6.716127145651228
        ],
        [
          107.9891340350078,
          -6.71927887192237
        ],
        [
          108.00325173278128,
          -6.735103476644099
        ],
        [
          107.99696408222667,
          -6.745610037573101
        ],
        [
          107.97961400068567,
          -6.745518999202432
        ],
        [
          107.95986499917046,
          -6.764633000212768
        ],
        [
          107.93856876623562,
          -6.759533700319992
        ],
        [
          107.92500942964153,
          -6.715080466090569
        ],
        [
          107.91409880511583,
          -6.721346588674066
        ],
        [
          107.90311070219718,
          -6.710086558647731
        ],
        [
          107.91388413784273,
          -6.681243395865977
        ],
        [
          107.89943400027897,
          -6.652125000068679
        ],
        [
          107.91305845408442,
          -6.622074512728545
        ],
        [
          107.90816721414569,
          -6.607909311865228
        ],
        [
          107.9132910808188,
          -6.601225486566932
        ]
      ]
    ]
  }
}