{
  "type": "Feature",
  "metadata": {
    "generator": {
      "name": "Peta Nusa",
      "url": "https://petanusa.web.id",
      "version": "1.0"
    },
    "query": {
      "region": "Cibugel",
      "region_code": "32.11.04",
      "level": "district",
      "boundary_level": "self"
    },
    "result": {
      "total_features": 1,
      "generated_at": "2026-02-13T09:54:18.890Z"
    },
    "source": {
      "name": "Laravel Nusa",
      "url": "https://nusa.creasi.dev",
      "github": "https://github.com/creasico/laravel-nusa",
      "data_reference": "Kepmendagri No 300.2.2-2138 Tahun 2025"
    },
    "copyright": {
      "text": "© Creasi.co - Laravel Nusa",
      "license": "MIT",
      "license_url": "https://github.com/creasico/laravel-nusa/blob/main/LICENSE"
    }
  },
  "properties": {
    "code": "32.11.04",
    "name": "Cibugel",
    "level": "district",
    "latitude": -6.9661524624742,
    "longitude": 108.02656050075,
    "parent_code": "32.11"
  },
  "geometry": {
    "type": "Polygon",
    "coordinates": [
      [
        [
          108.05753139855528,
          -6.935711469208911
        ],
        [
          108.04985109205433,
          -6.959855345148014
        ],
        [
          108.06206771924991,
          -6.965311204648344
        ],
        [
          108.07967500060084,
          -6.9569139999810545
        ],
        [
          108.08670941220964,
          -6.9776547936337465
        ],
        [
          108.063825438793,
          -6.994801608607304
        ],
        [
          108.04211607799465,
          -6.996352561421531
        ],
        [
          108.01789413100943,
          -6.980430188702201
        ],
        [
          107.99068887019524,
          -6.981968524927424
        ],
        [
          107.96650513720238,
          -6.958775174834386
        ],
        [
          107.98452398429453,
          -6.938417599392665
        ],
        [
          108.01777499332132,
          -6.949746636198256
        ],
        [
          108.01954867942806,
          -6.941726216891368
        ],
        [
          108.05753139855528,
          -6.935711469208911
        ]
      ]
    ]
  }
}