{
  "type": "Feature",
  "metadata": {
    "generator": {
      "name": "Peta Nusa",
      "url": "https://petanusa.web.id",
      "version": "1.0"
    },
    "query": {
      "region": "Cimanggung",
      "region_code": "32.11.14",
      "level": "district",
      "boundary_level": "self"
    },
    "result": {
      "total_features": 1,
      "generated_at": "2026-02-13T09:54:31.290Z"
    },
    "source": {
      "name": "Laravel Nusa",
      "url": "https://nusa.creasi.dev",
      "github": "https://github.com/creasico/laravel-nusa",
      "data_reference": "Kepmendagri No 300.2.2-2138 Tahun 2025"
    },
    "copyright": {
      "text": "© Creasi.co - Laravel Nusa",
      "license": "MIT",
      "license_url": "https://github.com/creasico/laravel-nusa/blob/main/LICENSE"
    }
  },
  "properties": {
    "code": "32.11.14",
    "name": "Cimanggung",
    "level": "district",
    "latitude": -6.9490683643886,
    "longitude": 107.85230825805,
    "parent_code": "32.11"
  },
  "geometry": {
    "type": "Polygon",
    "coordinates": [
      [
        [
          107.81770523241062,
          -6.9284423858073865
        ],
        [
          107.8311982880706,
          -6.937498136130046
        ],
        [
          107.84864337758984,
          -6.928973127008135
        ],
        [
          107.90300276286729,
          -6.9440191706481755
        ],
        [
          107.91621381901263,
          -6.9349643529225204
        ],
        [
          107.93044300034427,
          -6.9453059997720175
        ],
        [
          107.91586089536406,
          -6.945697498940376
        ],
        [
          107.9126794878681,
          -6.95452998806843
        ],
        [
          107.89998495374266,
          -6.953100594816533
        ],
        [
          107.88992677500073,
          -6.963863735023324
        ],
        [
          107.84473932256174,
          -6.969562862935732
        ],
        [
          107.83104896463806,
          -6.964222885577669
        ],
        [
          107.8286408661831,
          -6.971632173286139
        ],
        [
          107.79073249490875,
          -6.96157839312832
        ],
        [
          107.80314300064902,
          -6.934804002003034
        ],
        [
          107.81770523241062,
          -6.9284423858073865
        ]
      ]
    ]
  }
}