{
  "type": "Feature",
  "metadata": {
    "generator": {
      "name": "Peta Nusa",
      "url": "https://petanusa.web.id",
      "version": "1.0"
    },
    "query": {
      "region": "Cisitu",
      "region_code": "32.11.05",
      "level": "district",
      "boundary_level": "self"
    },
    "result": {
      "total_features": 1,
      "generated_at": "2026-02-13T09:54:49.975Z"
    },
    "source": {
      "name": "Laravel Nusa",
      "url": "https://nusa.creasi.dev",
      "github": "https://github.com/creasico/laravel-nusa",
      "data_reference": "Kepmendagri No 300.2.2-2138 Tahun 2025"
    },
    "copyright": {
      "text": "© Creasi.co - Laravel Nusa",
      "license": "MIT",
      "license_url": "https://github.com/creasico/laravel-nusa/blob/main/LICENSE"
    }
  },
  "properties": {
    "code": "32.11.05",
    "name": "Cisitu",
    "level": "district",
    "latitude": -6.8758548495525,
    "longitude": 108.04047790859,
    "parent_code": "32.11"
  },
  "geometry": {
    "type": "Polygon",
    "coordinates": [
      [
        [
          108.0526788357597,
          -6.818925882423514
        ],
        [
          108.06851134192493,
          -6.823551663178648
        ],
        [
          108.07707686460566,
          -6.835815960737932
        ],
        [
          108.09337958400067,
          -6.832035250426429
        ],
        [
          108.0991034585578,
          -6.848902782737184
        ],
        [
          108.09417671788128,
          -6.868098006018101
        ],
        [
          108.06481633790372,
          -6.859410109888586
        ],
        [
          108.05677198493919,
          -6.878430156926129
        ],
        [
          108.06197481118863,
          -6.887999349090649
        ],
        [
          108.0506739069753,
          -6.889801132716059
        ],
        [
          108.0481809341029,
          -6.90517529490387
        ],
        [
          108.03138891066976,
          -6.910342532282016
        ],
        [
          108.00001891913786,
          -6.946107960314066
        ],
        [
          107.98340986727163,
          -6.938909864898278
        ],
        [
          108.00153409332381,
          -6.91578071111087
        ],
        [
          107.99743061273267,
          -6.899987722055698
        ],
        [
          108.01666653663142,
          -6.867808506157587
        ],
        [
          108.0423851938217,
          -6.849094262789947
        ],
        [
          108.03616785316393,
          -6.821185165562895
        ],
        [
          108.0526788357597,
          -6.818925882423514
        ]
      ]
    ]
  }
}