{
  "type": "Feature",
  "metadata": {
    "generator": {
      "name": "Peta Nusa",
      "url": "https://petanusa.web.id",
      "version": "1.0"
    },
    "query": {
      "region": "Conggeang",
      "region_code": "32.11.07",
      "level": "district",
      "boundary_level": "self"
    },
    "result": {
      "total_features": 1,
      "generated_at": "2026-02-13T09:54:56.276Z"
    },
    "source": {
      "name": "Laravel Nusa",
      "url": "https://nusa.creasi.dev",
      "github": "https://github.com/creasico/laravel-nusa",
      "data_reference": "Kepmendagri No 300.2.2-2138 Tahun 2025"
    },
    "copyright": {
      "text": "© Creasi.co - Laravel Nusa",
      "license": "MIT",
      "license_url": "https://github.com/creasico/laravel-nusa/blob/main/LICENSE"
    }
  },
  "properties": {
    "code": "32.11.07",
    "name": "Conggeang",
    "level": "district",
    "latitude": -6.7230279389025,
    "longitude": 108.01879755934,
    "parent_code": "32.11"
  },
  "geometry": {
    "type": "Polygon",
    "coordinates": [
      [
        [
          107.98294974803252,
          -6.65441587729083
        ],
        [
          108.02997465660519,
          -6.660057456686218
        ],
        [
          108.03373216890452,
          -6.67864383804266
        ],
        [
          108.06315128630285,
          -6.705287410185804
        ],
        [
          108.07854230088651,
          -6.709651900115034
        ],
        [
          108.06341825275024,
          -6.720686087892602
        ],
        [
          108.06166902460586,
          -6.731834066888609
        ],
        [
          108.08028499995282,
          -6.757119999987935
        ],
        [
          108.07479400034288,
          -6.766016000138222
        ],
        [
          108.05076931515185,
          -6.78026794061293
        ],
        [
          108.04784009194674,
          -6.768383953756427
        ],
        [
          108.02388295573388,
          -6.777492208298725
        ],
        [
          107.99853414473506,
          -6.774103487286084
        ],
        [
          107.99914342013278,
          -6.784193425586068
        ],
        [
          107.97257699992866,
          -6.780434002227366
        ],
        [
          107.97203400006913,
          -6.771008000119082
        ],
        [
          107.95986499917046,
          -6.764633000212768
        ],
        [
          107.97961400068567,
          -6.745518999202432
        ],
        [
          107.99696408222667,
          -6.745610037573101
        ],
        [
          108.00325173278128,
          -6.735103476644099
        ],
        [
          107.9891340350078,
          -6.71927887192237
        ],
        [
          107.97445346685407,
          -6.716509229817063
        ],
        [
          107.97925031035362,
          -6.673502359945928
        ],
        [
          107.97153224941383,
          -6.657990447700968
        ],
        [
          107.98294974803252,
          -6.65441587729083
        ]
      ]
    ]
  }
}