{
  "type": "Feature",
  "metadata": {
    "generator": {
      "name": "Peta Nusa",
      "url": "https://petanusa.web.id",
      "version": "1.0"
    },
    "query": {
      "region": "Darmaraja",
      "region_code": "32.11.03",
      "level": "district",
      "boundary_level": "self"
    },
    "result": {
      "total_features": 1,
      "generated_at": "2026-02-13T09:55:04.258Z"
    },
    "source": {
      "name": "Laravel Nusa",
      "url": "https://nusa.creasi.dev",
      "github": "https://github.com/creasico/laravel-nusa",
      "data_reference": "Kepmendagri No 300.2.2-2138 Tahun 2025"
    },
    "copyright": {
      "text": "© Creasi.co - Laravel Nusa",
      "license": "MIT",
      "license_url": "https://github.com/creasico/laravel-nusa/blob/main/LICENSE"
    }
  },
  "properties": {
    "code": "32.11.03",
    "name": "Darmaraja",
    "level": "district",
    "latitude": -6.911640903154,
    "longitude": 108.0601115096,
    "parent_code": "32.11"
  },
  "geometry": {
    "type": "Polygon",
    "coordinates": [
      [
        [
          108.0656917721576,
          -6.859098760099641
        ],
        [
          108.09417671788128,
          -6.868098006018101
        ],
        [
          108.08987562386102,
          -6.938333955247799
        ],
        [
          108.07848497630067,
          -6.932944670759923
        ],
        [
          108.05242094077386,
          -6.956051269550414
        ],
        [
          108.05695986140853,
          -6.935319558151036
        ],
        [
          108.01954867942806,
          -6.941726216891368
        ],
        [
          108.01867462563354,
          -6.949645501138946
        ],
        [
          108.0014303106604,
          -6.947726774171258
        ],
        [
          108.03138891066976,
          -6.910342532282016
        ],
        [
          108.0481809341029,
          -6.90517529490387
        ],
        [
          108.0506739069753,
          -6.889801132716059
        ],
        [
          108.0617130626078,
          -6.888386735659253
        ],
        [
          108.05677198493919,
          -6.878430156926129
        ],
        [
          108.0656917721576,
          -6.859098760099641
        ]
      ]
    ]
  }
}