{
  "type": "Feature",
  "metadata": {
    "generator": {
      "name": "Peta Nusa",
      "url": "https://petanusa.web.id",
      "version": "1.0"
    },
    "query": {
      "region": "Ganeas",
      "region_code": "32.11.19",
      "level": "district",
      "boundary_level": "self"
    },
    "result": {
      "total_features": 1,
      "generated_at": "2026-02-13T09:55:11.591Z"
    },
    "source": {
      "name": "Laravel Nusa",
      "url": "https://nusa.creasi.dev",
      "github": "https://github.com/creasico/laravel-nusa",
      "data_reference": "Kepmendagri No 300.2.2-2138 Tahun 2025"
    },
    "copyright": {
      "text": "© Creasi.co - Laravel Nusa",
      "license": "MIT",
      "license_url": "https://github.com/creasico/laravel-nusa/blob/main/LICENSE"
    }
  },
  "properties": {
    "code": "32.11.19",
    "name": "Ganeas",
    "level": "district",
    "latitude": -6.8708079498632,
    "longitude": 107.96820881634,
    "parent_code": "32.11"
  },
  "geometry": {
    "type": "Polygon",
    "coordinates": [
      [
        [
          107.99160499967104,
          -6.837626667436723
        ],
        [
          107.98063502258827,
          -6.8744205169932115
        ],
        [
          107.99038131734397,
          -6.886839934115642
        ],
        [
          107.97141300020985,
          -6.904713000204765
        ],
        [
          107.9580370003074,
          -6.90333999984108
        ],
        [
          107.94405404975464,
          -6.867105585254535
        ],
        [
          107.94650435609122,
          -6.85360684228192
        ],
        [
          107.969516730213,
          -6.8422232840772494
        ],
        [
          107.9823736702088,
          -6.844632510282054
        ],
        [
          107.98919017878376,
          -6.83271363512614
        ],
        [
          107.99160499967104,
          -6.837626667436723
        ]
      ]
    ]
  }
}