{
  "type": "Feature",
  "metadata": {
    "generator": {
      "name": "Peta Nusa",
      "url": "https://petanusa.web.id",
      "version": "1.0"
    },
    "query": {
      "region": "Jatigede",
      "region_code": "32.11.26",
      "level": "district",
      "boundary_level": "self"
    },
    "result": {
      "total_features": 1,
      "generated_at": "2026-02-13T09:55:18.474Z"
    },
    "source": {
      "name": "Laravel Nusa",
      "url": "https://nusa.creasi.dev",
      "github": "https://github.com/creasico/laravel-nusa",
      "data_reference": "Kepmendagri No 300.2.2-2138 Tahun 2025"
    },
    "copyright": {
      "text": "© Creasi.co - Laravel Nusa",
      "license": "MIT",
      "license_url": "https://github.com/creasico/laravel-nusa/blob/main/LICENSE"
    }
  },
  "properties": {
    "code": "32.11.26",
    "name": "Jatigede",
    "level": "district",
    "latitude": -6.8721715491921,
    "longitude": 108.13407691847,
    "parent_code": "32.11"
  },
  "geometry": {
    "type": "Polygon",
    "coordinates": [
      [
        [
          108.09597435113545,
          -6.803961474742209
        ],
        [
          108.11365500367555,
          -6.82320760234893
        ],
        [
          108.12845700009052,
          -6.826289000736722
        ],
        [
          108.13256408966106,
          -6.841072760699319
        ],
        [
          108.14459434135586,
          -6.8290341192291635
        ],
        [
          108.1775783128889,
          -6.832187911243068
        ],
        [
          108.17944599883384,
          -6.852008389975197
        ],
        [
          108.18853258511075,
          -6.8530565597124
        ],
        [
          108.1889806714209,
          -6.8652519826928255
        ],
        [
          108.19835496700819,
          -6.870700544194733
        ],
        [
          108.19266204261925,
          -6.882719653289314
        ],
        [
          108.2020810021366,
          -6.895010999757801
        ],
        [
          108.1781009799763,
          -6.897270950194127
        ],
        [
          108.17869168976972,
          -6.906519733698701
        ],
        [
          108.15130693506705,
          -6.9111500758152715
        ],
        [
          108.14686596589166,
          -6.919196397395751
        ],
        [
          108.15552808205541,
          -6.933261296871308
        ],
        [
          108.14651982223205,
          -6.939287161073594
        ],
        [
          108.13258637486138,
          -6.928467938244694
        ],
        [
          108.09090057670034,
          -6.921801817000187
        ],
        [
          108.09907203264822,
          -6.848699589914077
        ],
        [
          108.09337958400067,
          -6.832035250426429
        ],
        [
          108.07662091462356,
          -6.8356690807634095
        ],
        [
          108.06383200024669,
          -6.821267000271803
        ],
        [
          108.07783806337596,
          -6.80913986371371
        ],
        [
          108.08502479585769,
          -6.815824984035714
        ],
        [
          108.09597435113545,
          -6.803961474742209
        ]
      ]
    ]
  }
}