{
  "type": "Feature",
  "metadata": {
    "generator": {
      "name": "Peta Nusa",
      "url": "https://petanusa.web.id",
      "version": "1.0"
    },
    "query": {
      "region": "Jatinunggal",
      "region_code": "32.11.02",
      "level": "district",
      "boundary_level": "self"
    },
    "result": {
      "total_features": 1,
      "generated_at": "2026-02-13T09:55:30.619Z"
    },
    "source": {
      "name": "Laravel Nusa",
      "url": "https://nusa.creasi.dev",
      "github": "https://github.com/creasico/laravel-nusa",
      "data_reference": "Kepmendagri No 300.2.2-2138 Tahun 2025"
    },
    "copyright": {
      "text": "© Creasi.co - Laravel Nusa",
      "license": "MIT",
      "license_url": "https://github.com/creasico/laravel-nusa/blob/main/LICENSE"
    }
  },
  "properties": {
    "code": "32.11.02",
    "name": "Jatinunggal",
    "level": "district",
    "latitude": -6.9356324626096,
    "longitude": 108.16092464199,
    "parent_code": "32.11"
  },
  "geometry": {
    "type": "Polygon",
    "coordinates": [
      [
        [
          108.21320078199057,
          -6.892700275397317
        ],
        [
          108.2095320561595,
          -6.9066290301055915
        ],
        [
          108.2155141179822,
          -6.90250591101892
        ],
        [
          108.21120988173072,
          -6.915282260967501
        ],
        [
          108.21986192728616,
          -6.928162847737212
        ],
        [
          108.18055284034136,
          -6.956198198088316
        ],
        [
          108.16917256736014,
          -6.975599188052058
        ],
        [
          108.1547500686608,
          -6.966662024133086
        ],
        [
          108.12487819117564,
          -6.971424514429771
        ],
        [
          108.11448905742412,
          -6.955146511102555
        ],
        [
          108.09943617443997,
          -6.955086393222416
        ],
        [
          108.09090057670034,
          -6.921801817000187
        ],
        [
          108.13258637486138,
          -6.928467938244694
        ],
        [
          108.14651982223205,
          -6.939287161073594
        ],
        [
          108.15552808205541,
          -6.933261296871308
        ],
        [
          108.14686596589166,
          -6.919196397395751
        ],
        [
          108.15130693506705,
          -6.9111500758152715
        ],
        [
          108.17869168976972,
          -6.906519733698701
        ],
        [
          108.1781009799763,
          -6.897270950194127
        ],
        [
          108.18901164677015,
          -6.900650615933159
        ],
        [
          108.20150592435897,
          -6.890011528209413
        ],
        [
          108.21320078199057,
          -6.892700275397317
        ]
      ]
    ]
  }
}