{
  "type": "Feature",
  "metadata": {
    "generator": {
      "name": "Peta Nusa",
      "url": "https://petanusa.web.id",
      "version": "1.0"
    },
    "query": {
      "region": "Pamulihan",
      "region_code": "32.11.13",
      "level": "district",
      "boundary_level": "self"
    },
    "result": {
      "total_features": 1,
      "generated_at": "2026-02-13T09:55:37.494Z"
    },
    "source": {
      "name": "Laravel Nusa",
      "url": "https://nusa.creasi.dev",
      "github": "https://github.com/creasico/laravel-nusa",
      "data_reference": "Kepmendagri No 300.2.2-2138 Tahun 2025"
    },
    "copyright": {
      "text": "© Creasi.co - Laravel Nusa",
      "license": "MIT",
      "license_url": "https://github.com/creasico/laravel-nusa/blob/main/LICENSE"
    }
  },
  "properties": {
    "code": "32.11.13",
    "name": "Pamulihan",
    "level": "district",
    "latitude": -6.8942545057193,
    "longitude": 107.84721635809,
    "parent_code": "32.11"
  },
  "geometry": {
    "type": "Polygon",
    "coordinates": [
      [
        [
          107.80884887887271,
          -6.844744480373436
        ],
        [
          107.81867120411283,
          -6.861286797147898
        ],
        [
          107.84100729974716,
          -6.866328929836186
        ],
        [
          107.85263927318397,
          -6.854678327842521
        ],
        [
          107.87018851318942,
          -6.864517051320831
        ],
        [
          107.87020339786858,
          -6.874081011229634
        ],
        [
          107.85794328755276,
          -6.882182511613564
        ],
        [
          107.87342855828138,
          -6.8774133627364336
        ],
        [
          107.88172047571942,
          -6.887527831843897
        ],
        [
          107.88164500101607,
          -6.93430799891496
        ],
        [
          107.84864337758984,
          -6.928973127008135
        ],
        [
          107.82769072884412,
          -6.935412162241448
        ],
        [
          107.8342273845862,
          -6.915990788244244
        ],
        [
          107.82884637835775,
          -6.899054721298285
        ],
        [
          107.80605300264403,
          -6.8875926666681835
        ],
        [
          107.81241318711898,
          -6.868770617070254
        ],
        [
          107.80254108530289,
          -6.860019625405357
        ],
        [
          107.80588871808993,
          -6.8403201360653725
        ],
        [
          107.80884887887271,
          -6.844744480373436
        ]
      ]
    ]
  }
}