{
  "type": "Feature",
  "metadata": {
    "generator": {
      "name": "Peta Nusa",
      "url": "https://petanusa.web.id",
      "version": "1.0"
    },
    "query": {
      "region": "Situraja",
      "region_code": "32.11.06",
      "level": "district",
      "boundary_level": "self"
    },
    "result": {
      "total_features": 1,
      "generated_at": "2026-02-13T09:56:16.046Z"
    },
    "source": {
      "name": "Laravel Nusa",
      "url": "https://nusa.creasi.dev",
      "github": "https://github.com/creasico/laravel-nusa",
      "data_reference": "Kepmendagri No 300.2.2-2138 Tahun 2025"
    },
    "copyright": {
      "text": "© Creasi.co - Laravel Nusa",
      "license": "MIT",
      "license_url": "https://github.com/creasico/laravel-nusa/blob/main/LICENSE"
    }
  },
  "properties": {
    "code": "32.11.06",
    "name": "Situraja",
    "level": "district",
    "latitude": -6.8563910179982,
    "longitude": 108.01406550529,
    "parent_code": "32.11"
  },
  "geometry": {
    "type": "Polygon",
    "coordinates": [
      [
        [
          108.06518205081107,
          -6.794440071651934
        ],
        [
          108.07730557119521,
          -6.800440979667428
        ],
        [
          108.07728880693293,
          -6.810953203627378
        ],
        [
          108.0629619439386,
          -6.822100709580013
        ],
        [
          108.03616785316393,
          -6.821185165562895
        ],
        [
          108.0423851938217,
          -6.849094262789947
        ],
        [
          108.01666653663142,
          -6.867808506157587
        ],
        [
          107.99743061273267,
          -6.899987722055698
        ],
        [
          108.00141107955773,
          -6.916037994557769
        ],
        [
          107.97811499900808,
          -6.941150997920147
        ],
        [
          107.96949590461236,
          -6.920793568168563
        ],
        [
          107.97167799894055,
          -6.901963001990907
        ],
        [
          107.99038131734397,
          -6.886839934115642
        ],
        [
          107.98063502258827,
          -6.8744205169932115
        ],
        [
          107.98914932528118,
          -6.831926252594428
        ],
        [
          108.00038563838655,
          -6.823846428569766
        ],
        [
          108.01716783762566,
          -6.828754601843343
        ],
        [
          108.01730701760482,
          -6.816225893709998
        ],
        [
          108.04437320276116,
          -6.7965337158582315
        ],
        [
          108.06518205081107,
          -6.794440071651934
        ]
      ]
    ]
  }
}