{
  "type": "Feature",
  "metadata": {
    "generator": {
      "name": "Peta Nusa",
      "url": "https://petanusa.web.id",
      "version": "1.0"
    },
    "query": {
      "region": "Sukasari",
      "region_code": "32.11.12",
      "level": "district",
      "boundary_level": "self"
    },
    "result": {
      "total_features": 1,
      "generated_at": "2026-02-13T09:56:23.261Z"
    },
    "source": {
      "name": "Laravel Nusa",
      "url": "https://nusa.creasi.dev",
      "github": "https://github.com/creasico/laravel-nusa",
      "data_reference": "Kepmendagri No 300.2.2-2138 Tahun 2025"
    },
    "copyright": {
      "text": "© Creasi.co - Laravel Nusa",
      "license": "MIT",
      "license_url": "https://github.com/creasico/laravel-nusa/blob/main/LICENSE"
    }
  },
  "properties": {
    "code": "32.11.12",
    "name": "Sukasari",
    "level": "district",
    "latitude": -6.8645804653801,
    "longitude": 107.76697375031,
    "parent_code": "32.11"
  },
  "geometry": {
    "type": "Polygon",
    "coordinates": [
      [
        [
          107.75101539814216,
          -6.813311923906099
        ],
        [
          107.782943442386,
          -6.844624812085385
        ],
        [
          107.7980944773783,
          -6.872885768163599
        ],
        [
          107.78679750140361,
          -6.891245210997624
        ],
        [
          107.79997054230677,
          -6.897425308930792
        ],
        [
          107.79194221975769,
          -6.90593862326881
        ],
        [
          107.78664520301379,
          -6.895464786870377
        ],
        [
          107.78239158600297,
          -6.9004984011802435
        ],
        [
          107.76463271582725,
          -6.895382018665202
        ],
        [
          107.75813312294531,
          -6.911621923113216
        ],
        [
          107.74098691501416,
          -6.854865862569454
        ],
        [
          107.75101539814216,
          -6.813311923906099
        ]
      ]
    ]
  }
}