{
  "type": "Feature",
  "metadata": {
    "generator": {
      "name": "Peta Nusa",
      "url": "https://petanusa.web.id",
      "version": "1.0"
    },
    "query": {
      "region": "Sumedang Utara",
      "region_code": "32.11.18",
      "level": "district",
      "boundary_level": "self"
    },
    "result": {
      "total_features": 1,
      "generated_at": "2026-02-13T09:56:50.319Z"
    },
    "source": {
      "name": "Laravel Nusa",
      "url": "https://nusa.creasi.dev",
      "github": "https://github.com/creasico/laravel-nusa",
      "data_reference": "Kepmendagri No 300.2.2-2138 Tahun 2025"
    },
    "copyright": {
      "text": "© Creasi.co - Laravel Nusa",
      "license": "MIT",
      "license_url": "https://github.com/creasico/laravel-nusa/blob/main/LICENSE"
    }
  },
  "properties": {
    "code": "32.11.18",
    "name": "Sumedang Utara",
    "level": "district",
    "latitude": -6.8358268701976,
    "longitude": 107.90877316876,
    "parent_code": "32.11"
  },
  "geometry": {
    "type": "Polygon",
    "coordinates": [
      [
        [
          107.90807653370513,
          -6.809783922190206
        ],
        [
          107.92830929493806,
          -6.815864851881372
        ],
        [
          107.93597189019061,
          -6.810440701577079
        ],
        [
          107.93792106010892,
          -6.838829885690643
        ],
        [
          107.95390100023104,
          -6.84949799903336
        ],
        [
          107.94620592686209,
          -6.85918338630421
        ],
        [
          107.93401947282047,
          -6.849810749966082
        ],
        [
          107.92578945212159,
          -6.857188223257822
        ],
        [
          107.91138985915472,
          -6.836223269088578
        ],
        [
          107.90725586186858,
          -6.8524736893092495
        ],
        [
          107.8895550851991,
          -6.866043598333363
        ],
        [
          107.86048118695726,
          -6.838109525134428
        ],
        [
          107.89446864990833,
          -6.831329272727714
        ],
        [
          107.88386504043933,
          -6.827475442137882
        ],
        [
          107.88248497859894,
          -6.810950030819242
        ],
        [
          107.90418916469827,
          -6.817735939062288
        ],
        [
          107.90807653370513,
          -6.809783922190206
        ]
      ]
    ]
  }
}