{
  "type": "Feature",
  "metadata": {
    "generator": {
      "name": "Peta Nusa",
      "url": "https://petanusa.web.id",
      "version": "1.0"
    },
    "query": {
      "region": "Tanjungsari",
      "region_code": "32.11.11",
      "level": "district",
      "boundary_level": "self"
    },
    "result": {
      "total_features": 1,
      "generated_at": "2026-02-13T09:58:16.307Z"
    },
    "source": {
      "name": "Laravel Nusa",
      "url": "https://nusa.creasi.dev",
      "github": "https://github.com/creasico/laravel-nusa",
      "data_reference": "Kepmendagri No 300.2.2-2138 Tahun 2025"
    },
    "copyright": {
      "text": "© Creasi.co - Laravel Nusa",
      "license": "MIT",
      "license_url": "https://github.com/creasico/laravel-nusa/blob/main/LICENSE"
    }
  },
  "properties": {
    "code": "32.11.11",
    "name": "Tanjungsari",
    "level": "district",
    "latitude": -6.8678184568263,
    "longitude": 107.79684376821,
    "parent_code": "32.11"
  },
  "geometry": {
    "type": "Polygon",
    "coordinates": [
      [
        [
          107.782038619187,
          -6.806599146733163
        ],
        [
          107.80546556728217,
          -6.8214842171228725
        ],
        [
          107.80254108530289,
          -6.860019625405357
        ],
        [
          107.81241318711898,
          -6.868770617070254
        ],
        [
          107.80605300264403,
          -6.8875926666681835
        ],
        [
          107.82884637835775,
          -6.899054721298285
        ],
        [
          107.8342273845862,
          -6.915990788244244
        ],
        [
          107.82757608416898,
          -6.934937911955046
        ],
        [
          107.81769445313654,
          -6.928186316445306
        ],
        [
          107.80314300064902,
          -6.934804002003034
        ],
        [
          107.78281692306263,
          -6.914142106772772
        ],
        [
          107.79948700112425,
          -6.899023000411091
        ],
        [
          107.78679750140361,
          -6.891245210997624
        ],
        [
          107.7980944773783,
          -6.872885768163599
        ],
        [
          107.782943442386,
          -6.844624812085385
        ],
        [
          107.75256073469023,
          -6.812923268394059
        ],
        [
          107.7732452002059,
          -6.802871829171522
        ],
        [
          107.782038619187,
          -6.806599146733163
        ]
      ]
    ]
  }
}