{
  "type": "Feature",
  "metadata": {
    "generator": {
      "name": "Peta Nusa",
      "url": "https://petanusa.web.id",
      "version": "1.0"
    },
    "query": {
      "region": "Tomo",
      "region_code": "32.11.24",
      "level": "district",
      "boundary_level": "self"
    },
    "result": {
      "total_features": 1,
      "generated_at": "2026-02-13T09:58:27.160Z"
    },
    "source": {
      "name": "Laravel Nusa",
      "url": "https://nusa.creasi.dev",
      "github": "https://github.com/creasico/laravel-nusa",
      "data_reference": "Kepmendagri No 300.2.2-2138 Tahun 2025"
    },
    "copyright": {
      "text": "© Creasi.co - Laravel Nusa",
      "license": "MIT",
      "license_url": "https://github.com/creasico/laravel-nusa/blob/main/LICENSE"
    }
  },
  "properties": {
    "code": "32.11.24",
    "name": "Tomo",
    "level": "district",
    "latitude": -6.7890268093111,
    "longitude": 108.11756200585,
    "parent_code": "32.11"
  },
  "geometry": {
    "type": "Polygon",
    "coordinates": [
      [
        [
          108.14913443200851,
          -6.759213680167136
        ],
        [
          108.1641910498771,
          -6.761177912830362
        ],
        [
          108.16964803982523,
          -6.783979187289617
        ],
        [
          108.16569223960522,
          -6.796433132982656
        ],
        [
          108.1543616550664,
          -6.7955729188551
        ],
        [
          108.16400144131353,
          -6.833408580841308
        ],
        [
          108.14459434135586,
          -6.8290341192291635
        ],
        [
          108.13641827188582,
          -6.8413774420153
        ],
        [
          108.12846188790587,
          -6.837644509986092
        ],
        [
          108.12757400073963,
          -6.825472999978899
        ],
        [
          108.10215496707815,
          -6.81517824018357
        ],
        [
          108.10109005915899,
          -6.80368901073922
        ],
        [
          108.08318925797795,
          -6.8156989080781045
        ],
        [
          108.07730557119521,
          -6.800440979667428
        ],
        [
          108.0557853971784,
          -6.796483010282657
        ],
        [
          108.0511201730576,
          -6.782824439796002
        ],
        [
          108.08000100124525,
          -6.757200999226711
        ],
        [
          108.09380799943966,
          -6.759130000049424
        ],
        [
          108.10643499897606,
          -6.750621999805389
        ],
        [
          108.12819093836117,
          -6.757986160432893
        ],
        [
          108.13717118879936,
          -6.752452064411216
        ],
        [
          108.14152285619491,
          -6.759541314879755
        ],
        [
          108.15175025497035,
          -6.748548590345138
        ],
        [
          108.14913443200851,
          -6.759213680167136
        ]
      ]
    ]
  }
}