{
  "type": "Feature",
  "metadata": {
    "generator": {
      "name": "Peta Nusa",
      "url": "https://petanusa.web.id",
      "version": "1.0"
    },
    "query": {
      "region": "Ujungjaya",
      "region_code": "32.11.25",
      "level": "district",
      "boundary_level": "self"
    },
    "result": {
      "total_features": 1,
      "generated_at": "2026-02-13T09:58:34.496Z"
    },
    "source": {
      "name": "Laravel Nusa",
      "url": "https://nusa.creasi.dev",
      "github": "https://github.com/creasico/laravel-nusa",
      "data_reference": "Kepmendagri No 300.2.2-2138 Tahun 2025"
    },
    "copyright": {
      "text": "© Creasi.co - Laravel Nusa",
      "license": "MIT",
      "license_url": "https://github.com/creasico/laravel-nusa/blob/main/LICENSE"
    }
  },
  "properties": {
    "code": "32.11.25",
    "name": "Ujungjaya",
    "level": "district",
    "latitude": -6.7093417006257,
    "longitude": 108.09283005725,
    "parent_code": "32.11"
  },
  "geometry": {
    "type": "Polygon",
    "coordinates": [
      [
        [
          108.03525400257024,
          -6.640871145686788
        ],
        [
          108.04988951019283,
          -6.63764540790919
        ],
        [
          108.05421727720562,
          -6.652160984641682
        ],
        [
          108.09186286927604,
          -6.67263085842734
        ],
        [
          108.11774794960826,
          -6.706356874969742
        ],
        [
          108.1322112784278,
          -6.705246164578796
        ],
        [
          108.15287547322458,
          -6.723046793874403
        ],
        [
          108.15915876836254,
          -6.720534326398024
        ],
        [
          108.16332838869425,
          -6.730004065235391
        ],
        [
          108.14354712759791,
          -6.758599873984963
        ],
        [
          108.13626644294203,
          -6.752289403133375
        ],
        [
          108.12819093836117,
          -6.757986160432893
        ],
        [
          108.10643499897606,
          -6.750621999805389
        ],
        [
          108.09279899697617,
          -6.759250000187308
        ],
        [
          108.0740960580867,
          -6.753936319005845
        ],
        [
          108.07138910142595,
          -6.7371031309047
        ],
        [
          108.06166902460586,
          -6.731834066888609
        ],
        [
          108.06341825275024,
          -6.720686087892602
        ],
        [
          108.0791862910146,
          -6.710524074326543
        ],
        [
          108.03369846771017,
          -6.678592885153478
        ],
        [
          108.02856359063725,
          -6.657371725824419
        ],
        [
          108.03486600536189,
          -6.654747639891639
        ],
        [
          108.03184470237119,
          -6.637069791437682
        ],
        [
          108.03525400257024,
          -6.640871145686788
        ]
      ]
    ]
  }
}