{
  "type": "Feature",
  "metadata": {
    "generator": {
      "name": "Peta Nusa",
      "url": "https://petanusa.web.id",
      "version": "1.0"
    },
    "query": {
      "region": "Wado",
      "region_code": "32.11.01",
      "level": "district",
      "boundary_level": "self"
    },
    "result": {
      "total_features": 1,
      "generated_at": "2026-02-13T09:58:41.619Z"
    },
    "source": {
      "name": "Laravel Nusa",
      "url": "https://nusa.creasi.dev",
      "github": "https://github.com/creasico/laravel-nusa",
      "data_reference": "Kepmendagri No 300.2.2-2138 Tahun 2025"
    },
    "copyright": {
      "text": "© Creasi.co - Laravel Nusa",
      "license": "MIT",
      "license_url": "https://github.com/creasico/laravel-nusa/blob/main/LICENSE"
    }
  },
  "properties": {
    "code": "32.11.01",
    "name": "Wado",
    "level": "district",
    "latitude": -6.9867482429095,
    "longitude": 108.11629767734,
    "parent_code": "32.11"
  },
  "geometry": {
    "type": "Polygon",
    "coordinates": [
      [
        [
          108.09827988101176,
          -6.937618689350984
        ],
        [
          108.09943617443997,
          -6.955086393222416
        ],
        [
          108.11448905742412,
          -6.955146511102555
        ],
        [
          108.12088626608835,
          -6.970202013811843
        ],
        [
          108.1547500686608,
          -6.966662024133086
        ],
        [
          108.17118280933926,
          -6.976093920398057
        ],
        [
          108.16500136332235,
          -6.998486580691122
        ],
        [
          108.1376692531336,
          -7.038797643696228
        ],
        [
          108.1147348583271,
          -7.032769283875325
        ],
        [
          108.0932701221185,
          -7.001672765385763
        ],
        [
          108.08415878380089,
          -6.999310096183933
        ],
        [
          108.08211625076444,
          -6.987134568905162
        ],
        [
          108.06979674562336,
          -6.9869991283071045
        ],
        [
          108.08622327828175,
          -6.9804238098109295
        ],
        [
          108.07967500060084,
          -6.9569139999810545
        ],
        [
          108.06206771924991,
          -6.965311204648344
        ],
        [
          108.04945711165647,
          -6.959095107753001
        ],
        [
          108.07848497630067,
          -6.932944670759923
        ],
        [
          108.08987562386102,
          -6.938333955247799
        ],
        [
          108.09049904289657,
          -6.927922385209854
        ],
        [
          108.09827988101176,
          -6.937618689350984
        ]
      ]
    ]
  }
}